1 43552U 98067PA  19205.17696046  .00008577  00000-0  10116-3 0  9994
2 43552  51.6379 163.0740 0005126 283.9502  76.0922 15.62261981 58567